[{"OBJECT_NAME":"STARLINK-5365","OBJECT_ID":"2023-015BB","EPOCH":"2026-03-09T22:00:01.999584","MEAN_MOTION":15.09714708,"ECCENTRICITY":0.00017096,"INCLINATION":42.9995,"RA_OF_ASC_NODE":337.1207,"ARG_OF_PERICENTER":278.4916,"MEAN_ANOMALY":143.8109,"EPHEMERIS_TYPE":0,"CLASSIFICATION_TYPE":"U","NORAD_CAT_ID":55498,"ELEMENT_SET_NO":999,"REV_AT_EPOCH":577,"BSTAR":0.00082675365,"MEAN_MOTION_DOT":0.00013367,"MEAN_MOTION_DDOT":0},{"OBJECT_NAME":"JILIN-1 KUANFU 02A","OBJECT_ID":"2023-127A","EPOCH":"2026-03-09T22:42:00.221760","MEAN_MOTION":15.09948681,"ECCENTRICITY":0.0009702,"INCLINATION":97.5529,"RA_OF_ASC_NODE":164.1218,"ARG_OF_PERICENTER":318.2814,"MEAN_ANOMALY":41.7675,"EPHEMERIS_TYPE":0,"CLASSIFICATION_TYPE":"U","NORAD_CAT_ID":57696,"ELEMENT_SET_NO":999,"REV_AT_EPOCH":14065,"BSTAR":0.00045097028,"MEAN_MOTION_DOT":7.263e-5,"MEAN_MOTION_DDOT":0}]
